{
  "norad_id": 62768,
  "name": "STARLINK-33601",
  "history": [
    {
      "epoch": "2026-03-28T18:31:25.074336Z",
      "apogee_km": 476.2561765261262,
      "perigee_km": 473.8796221311359,
      "latitude_deg": -3.132916074641448e-05,
      "longitude_deg": 129.71112585580215,
      "height_km": 475.7981559676392,
      "semi_major_axis_km": 6853.204899328631,
      "eccentricity": 0.00017339,
      "inclination_deg": 53.158,
      "raan_deg": 233.7531,
      "arg_perigee_deg": 81.9207,
      "mean_anomaly_deg": 278.199,
      "mean_motion_rev_day": 15.30249291
    },
    {
      "epoch": "2026-03-29T02:21:40.951296Z",
      "apogee_km": 476.64813139612215,
      "perigee_km": 473.60117126594105,
      "latitude_deg": -2.6215723622545523e-05,
      "longitude_deg": 10.300790933685226,
      "height_km": 475.2518811091242,
      "semi_major_axis_km": 6853.261651331031,
      "eccentricity": 0.0002223,
      "inclination_deg": 53.1563,
      "raan_deg": 232.2308,
      "arg_perigee_deg": 59.6598,
      "mean_anomaly_deg": 300.4622,
      "mean_motion_rev_day": 15.30230283
    },
    {
      "epoch": "2026-03-29T02:21:40.952160Z",
      "apogee_km": 476.64785726565606,
      "perigee_km": 473.60144539640623,
      "latitude_deg": -2.301908637427261e-05,
      "longitude_deg": 10.300789705762016,
      "height_km": 475.2520195769736,
      "semi_major_axis_km": 6853.261651331031,
      "eccentricity": 0.00022226,
      "inclination_deg": 53.1563,
      "raan_deg": 232.2308,
      "arg_perigee_deg": 59.6598,
      "mean_anomaly_deg": 300.4622,
      "mean_motion_rev_day": 15.30230283
    },
    {
      "epoch": "2026-03-30T12:50:52.224288Z",
      "apogee_km": 477.2563860312721,
      "perigee_km": 473.2763405620699,
      "latitude_deg": 1.2801432016434003e-05,
      "longitude_deg": -155.08195849622982,
      "height_km": 474.73282912496234,
      "semi_major_axis_km": 6853.40336329667,
      "eccentricity": 0.00029037,
      "inclination_deg": 53.1572,
      "raan_deg": 225.5613,
      "arg_perigee_deg": 316.1488,
      "mean_anomaly_deg": 43.9282,
      "mean_motion_rev_day": 15.30182821
    }
  ]
}